EPGD 042300Z 27013G24KT 7000 -SHRA FEW011 SCT028CB 03/02 Q1011
EPGD 042330Z 30009G16KT 8000 -SHRA BKN011CB 03/02 Q1011 RESHRA
EPGD 050000Z 29013G19KT 9999 SCT013 03/02 Q1011
EPGD 050030Z 28012G17KT 9999 FEW019 03/02 Q1011
EPGD 050100Z 28010G14KT 9999 FEW021 SCT039 03/02 Q1011
EPGD 050130Z 28013G24KT 9999 FEW021 03/01 Q1011
EPGD 050200Z 27009G17KT 240V300 9999 -SHRA FEW013 SCT021 03/02 Q1011
EPGD 050230Z 27013G20KT 240V300 9999 FEW015 03/01 Q1011
EPGD 050300Z 28011G18KT 9999 FEW015 03/01 Q1011
EPGD 050330Z 28012G22KT 9999 -SHRA FEW015 03/01 Q1011
EPGD 050400Z 27012G23KT 9999 FEW011 03/02 Q1011
EPGD 050430Z 27012G17KT 9999 -SHRA FEW009 SCT015CB 03/02 Q1011
EPGD 050500Z 28013G26KT 9999 -SHRA FEW009 SCT015CB BKN020 03/02 Q1011
EPGD 050530Z 27010G19KT 9999 FEW009 SCT015 03/01 Q1011
EPGD 050600Z 27012G22KT 9999 FEW026 SCT046 03/02 Q1010
EPGD 050630Z 27013G23KT 9999 -SHRA BKN013 03/02 Q1010
EPGD 050700Z 27014G27KT 9999 -SHRA SCT013 03/02 Q1010
EPGD 050730Z 27016G28KT 9999 BKN015 04/02 Q1010
EPGD 050800Z 27014G24KT 230V290 9999 BKN015 04/02 Q1010
EPGD 050830Z 27016G26KT 9999 SCT015 04/02 Q1010
EPGD 050900Z 26018G30KT 9999 SCT014 04/01 Q1009
EPGD 050930Z 26015G26KT 9999 FEW014 SCT036 04/01 Q1008
EPGD 051000Z 26016G26KT 230V290 9999 BKN015 04/01 Q1008
EPGD 051100Z 25016G28KT 210V280 9999 BKN017 04/01 Q1007
EPGD 051130Z 25014G27KT 210V280 9999 BKN017 04/01 Q1006
EPGD 051200Z 25012G22KT 210V280 9999 BKN017 04/01 Q1005
EPGD 051230Z 24013G20KT 200V270 9999 BKN017 04/01 Q1004
